ONEWEB-0136             
1 47282U 20100AA  25349.38374210 -.00000123  00000+0 -37685-3 0  9996
2 47282  87.8941  27.1568 0001652  83.0271 277.1045 13.12445487240557
ONEWEB-0137             
1 47283U 20100AB  25349.34153396  .00001507  00000+0  41532-2 0  9993
2 47283  87.8944  27.1709 0001638 100.5598 259.5716 13.12459047240454
ONEWEB-0138             
1 47284U 20100AC  25349.16761737  .00000305  00000+0  81012-3 0  9991
2 47284  87.8941  27.2141 0001682  91.6223 268.5099 13.12589788240514
ONEWEB-0139             
1 47285U 20100AD  25349.35980469 -.00000280  00000+0 -81416-3 0  9990
2 47285  87.8938  27.1655 0001770  96.5246 263.6084 13.12363036240614
ONEWEB-0140             
1 47286U 20100AE  25349.39033809 -.00000121  00000+0 -37226-3 0  9996
2 47286  87.8941  27.1463 0001711  92.2674 267.8650 13.12404741240589
ONEWEB-0141             
1 47287U 20100AF  25349.35951011 -.00000648  00000+0 -18375-2 0  9994
2 47287  87.8932  27.1614 0001578 106.4166 253.7136 13.12362293240569
ONEWEB-0142             
1 47288U 20100AG  25349.34827508  .00000423  00000+0  11394-2 0  9990
2 47288  87.8939  27.1869 0001385 100.8029 259.3256 13.12428191240555
ONEWEB-0143             
1 47289U 20100AH  25349.35799445 -.00000172  00000+0 -51393-3 0  9997
2 47289  87.8937  27.1807 0001770  98.3897 261.7432 13.12371365240539
